{
    "links": {
        "self": "http://www.neowsapp.com/rest/v1/neo/3884105?api_key=iIulBulltgU6a56xZRHN4H3l9WmuAYTsLGpBGhQ2"
    },
    "id": "3884105",
    "neo_reference_id": "3884105",
    "name": "(2019 UL10)",
    "designation": "2019 UL10",
    "nasa_jpl_url": "http://ssd.jpl.nasa.gov/sbdb.cgi?sstr=3884105",
    "absolute_magnitude_h": 24.8,
    "estimated_diameter": {
        "kilometers": {
            "estimated_diameter_min": 0.0291443905,
            "estimated_diameter_max": 0.0651688382
        },
        "meters": {
            "estimated_diameter_min": 29.1443904535,
            "estimated_diameter_max": 65.1688382168
        },
        "miles": {
            "estimated_diameter_min": 0.018109479,
            "estimated_diameter_max": 0.0404940262
        },
        "feet": {
            "estimated_diameter_min": 95.6180819754,
            "estimated_diameter_max": 213.8085311752
        }
    },
    "is_potentially_hazardous_asteroid": false,
    "close_approach_data": [
        {
            "close_approach_date": "2015-12-09",
            "close_approach_date_full": "2015-Dec-09 16:12",
            "epoch_date_close_approach": 1449677520000,
            "relative_velocity": {
                "kilometers_per_second": "14.0368467",
                "kilometers_per_hour": "50532.6481200518",
                "miles_per_hour": "31399.0223832622"
            },
            "miss_distance": {
                "astronomical": "0.4757596416",
                "lunar": "185.0705005824",
                "kilometers": "71172629.015323392",
                "miles": "44224620.9471991296"
            },
            "orbiting_body": "Earth"
        },
        {
            "close_approach_date": "2019-11-16",
            "close_approach_date_full": "2019-Nov-16 12:47",
            "epoch_date_close_approach": 1573908420000,
            "relative_velocity": {
                "kilometers_per_second": "4.9473074052",
                "kilometers_per_hour": "17810.3066586832",
                "miles_per_hour": "11066.631934669"
            },
            "miss_distance": {
                "astronomical": "0.1395203634",
                "lunar": "54.2734213626",
                "kilometers": "20871949.186265958",
                "miles": "12969227.8332599004"
            },
            "orbiting_body": "Earth"
        }
    ],
    "orbital_data": {
        "orbit_id": "5",
        "orbit_determination_date": "2020-09-11 07:45:30",
        "first_observation_date": "2019-10-27",
        "last_observation_date": "2019-12-07",
        "data_arc_in_days": 41,
        "observations_used": 31,
        "orbit_uncertainty": "6",
        "minimum_orbit_intersection": ".139867",
        "jupiter_tisserand_invariant": "3.249",
        "epoch_osculation": "2459000.5",
        "eccentricity": ".5473961768067543",
        "semi_major_axis": "2.486275651625266",
        "inclination": "2.525547665422109",
        "ascending_node_longitude": "18.12810155033925",
        "orbital_period": "1431.931827414915",
        "perihelion_distance": "1.125297865437873",
        "perihelion_argument": "38.03967366077001",
        "aphelion_distance": "3.847253437812658",
        "perihelion_time": "2458806.687093887948",
        "mean_anomaly": "48.72623463248257",
        "mean_motion": ".2514086167425391",
        "equinox": "J2000",
        "orbit_class": {
            "orbit_class_type": "AMO",
            "orbit_class_description": "Near-Earth asteroid orbits similar to that of 1221 Amor",
            "orbit_class_range": "1.017 AU < q (perihelion) < 1.3 AU"
        }
    },
    "is_sentry_object": false
}